{"type": "FeatureCollection", "features": [ {"type": "Feature", "properties": {"norad_id": 66493, "name": "STARLINK-35597", "group": "last-30-days", "lat": -42.97971661242335, "lon": 55.02951398498927, "alt_km": 417.4442871028523, "timestamp": "2025-12-09T07:41:31.972096+00:00", "meta": {"OBJECT_NAME": "STARLINK-35597", "OBJECT_ID": "2025-263J", "EPOCH": "2025-12-08T22:00:03.000096", "MEAN_MOTION": 15.50587743, "ECCENTRICITY": 0.00014722, "INCLINATION": 43.0002, "RA_OF_ASC_NODE": 147.4877, "ARG_OF_PERICENTER": 274.6335, "MEAN_ANOMALY": 258.5121, "EPHEMERIS_TYPE": 0, "CLASSIFICATION_TYPE": "U", "NORAD_CAT_ID": 66493, "ELEMENT_SET_NO": 999, "REV_AT_EPOCH": 502, "BSTAR": -0.0004532652, "MEAN_MOTION_DOT": -0.00026849, "MEAN_MOTION_DDOT": 0}, "tle": {"line1": "1 66493U 25263J   25342.91670139 -.00026849  00000+0 -45327-3 0  9992", "line2": "2 66493  43.0002 147.4877 0001472 274.6335 258.5121 15.50587743  5027"}}, "geometry": {"type": "Point", "coordinates": [55.02951398498927, -42.97971661242335]}}, {"type": "Feature", "properties": {"norad_id": 66494, "name": "STARLINK-35689", "group": "last-30-days", "lat": -42.70610557882403, "lon": 47.21981016080078, "alt_km": 417.30742373358135, "timestamp": "2025-12-09T07:41:31.972108+00:00", "meta": {"OBJECT_NAME": "STARLINK-35689", "OBJECT_ID": "2025-263K", "EPOCH": "2025-12-08T22:00:03.000096", "MEAN_MOTION": 15.50521551, "ECCENTRICITY": 0.00015644, "INCLINATION": 43.0004, "RA_OF_ASC_NODE": 147.5031, "ARG_OF_PERICENTER": 278.7678, "MEAN_ANOMALY": 248.6478, "EPHEMERIS_TYPE": 0, "CLASSIFICATION_TYPE": "U", "NORAD_CAT_ID": 66494, "ELEMENT_SET_NO": 999, "REV_AT_EPOCH": 502, "BSTAR": 0.0018219372, "MEAN_MOTION_DOT": 0.00107805, "MEAN_MOTION_DDOT": 0}, "tle": {"line1": "1 66494U 25263K   25342.91670139  .00107805  00000+0  18219-2 0  9992", "line2": "2 66494  43.0004 147.5031 0001564 278.7678 248.6478 15.50521551  5020"}}, "geometry": {"type": "Point", "coordinates": [47.21981016080078, -42.70610557882403]}}, {"type": "Feature", "properties": {"norad_id": 66495, "name": "STARLINK-35832", "group": "last-30-days", "lat": -42.952498901860814, "lon": 57.62778334444522, "alt_km": 417.3679166225302, "timestamp": "2025-12-09T07:41:31.972118+00:00", "meta": {"OBJECT_NAME": "STARLINK-35832", "OBJECT_ID": "2025-263L", "EPOCH": "2025-12-08T22:00:03.000096", "MEAN_MOTION": 15.50563836, "ECCENTRICITY": 0.0001715, "INCLINATION": 43.0003, "RA_OF_ASC_NODE": 147.4835, "ARG_OF_PERICENTER": 290.155, "MEAN_ANOMALY": 244.9248, "EPHEMERIS_TYPE": 0, "CLASSIFICATION_TYPE": "U", "NORAD_CAT_ID": 66495, "ELEMENT_SET_NO": 999, "REV_AT_EPOCH": 502, "BSTAR": -7.4443223e-05, "MEAN_MOTION_DOT": -4.704e-05, "MEAN_MOTION_DDOT": 0}, "tle": {"line1": "1 66495U 25263L   25342.91670139 -.00004704  00000+0 -74443-4 0  9992", "line2": "2 66495  43.0003 147.4835 0001715 290.1550 244.9248 15.50563836  5022"}}, "geometry": {"type": "Point", "coordinates": [57.62778334444522, -42.952498901860814]}}, {"type": "Feature", "properties": {"norad_id": 66496, "name": "STARLINK-35909", "group": "last-30-days", "lat": -42.86574110703167, "lon": 60.23584204573388, "alt_km": 417.1973062080342, "timestamp": "2025-12-09T07:41:31.972129+00:00", "meta": {"OBJECT_NAME": "STARLINK-35909", "OBJECT_ID": "2025-263M", "EPOCH": "2025-12-08T22:00:03.000096", "MEAN_MOTION": 15.50524641, "ECCENTRICITY": 0.00017225, "INCLINATION": 43.0004, "RA_OF_ASC_NODE": 147.4787, "ARG_OF_PERICENTER": 272.8784, "MEAN_ANOMALY": 264.1178, "EPHEMERIS_TYPE": 0, "CLASSIFICATION_TYPE": "U", "NORAD_CAT_ID": 66496, "ELEMENT_SET_NO": 999, "REV_AT_EPOCH": 502, "BSTAR": 0.0014660394, "MEAN_MOTION_DOT": 0.00086452, "MEAN_MOTION_DDOT": 0}, "tle": {"line1": "1 66496U 25263M   25342.91670139  .00086452  00000+0  14660-2 0  9994", "line2": "2 66496  43.0004 147.4787 0001722 272.8784 264.1178 15.50524641  5021"}}, "geometry": {"type": "Point", "coordinates": [60.23584204573388, -42.86574110703167]}}, {"type": "Feature", "properties": {"norad_id": 66497, "name": "STARLINK-35899", "group": "last-30-days", "lat": -42.720263342686955, "lon": 62.82647972813553, "alt_km": 417.2043666871268, "timestamp": "2025-12-09T07:41:31.972138+00:00", "meta": {"OBJECT_NAME": "STARLINK-35899", "OBJECT_ID": "2025-263N", "EPOCH": "2025-12-08T22:00:03.000096", "MEAN_MOTION": 15.50554544, "ECCENTRICITY": 0.00018581, "INCLINATION": 43.0005, "RA_OF_ASC_NODE": 147.4735, "ARG_OF_PERICENTER": 285.4552, "MEAN_ANOMALY": 253.4581, "EPHEMERIS_TYPE": 0, "CLASSIFICATION_TYPE": "U", "NORAD_CAT_ID": 66497, "ELEMENT_SET_NO": 999, "REV_AT_EPOCH": 502, "BSTAR": 0.00020792672, "MEAN_MOTION_DOT": 0.00011864, "MEAN_MOTION_DDOT": 0}, "tle": {"line1": "1 66497U 25263N   25342.91670139  .00011864  00000+0  20793-3 0  9995", "line2": "2 66497  43.0005 147.4735 0001858 285.4552 253.4581 15.50554544  5023"}}, "geometry": {"type": "Point", "coordinates": [62.82647972813553, -42.720263342686955]}}, {"type": "Feature", "properties": {"norad_id": 66498, "name": "STARLINK-35907", "group": "last-30-days", "lat": -42.52237225305146, "lon": 65.33111005127807, "alt_km": 418.10934634378646, "timestamp": "2025-12-09T07:41:31.972149+00:00", "meta": {"OBJECT_NAME": "STARLINK-35907", "OBJECT_ID": "2025-263P", "EPOCH": "2025-12-08T22:00:03.000096", "MEAN_MOTION": 15.50710286, "ECCENTRICITY": 0.00011929, "INCLINATION": 43, "RA_OF_ASC_NODE": 147.4688, "ARG_OF_PERICENTER": 263.0273, "MEAN_ANOMALY": 277.7572, "EPHEMERIS_TYPE": 0, "CLASSIFICATION_TYPE": "U", "NORAD_CAT_ID": 66498, "ELEMENT_SET_NO": 999, "REV_AT_EPOCH": 502, "BSTAR": -0.0069246396, "MEAN_MOTION_DOT": -0.00388852, "MEAN_MOTION_DDOT": 0}, "tle": {"line1": "1 66498U 25263P   25342.91670139 -.00388852  00000+0 -69246-2 0  9997", "line2": "2 66498  43.0000 147.4688 0001192 263.0273 277.7572 15.50710286  5025"}}, "geometry": {"type": "Point", "coordinates": [65.33111005127807, -42.52237225305146]}}, {"type": "Feature", "properties": {"norad_id": 66499, "name": "STARLINK-35816", "group": "last-30-days", "lat": -41.93500970904325, "lon": 70.50791235770407, "alt_km": 417.3805837284508, "timestamp": "2025-12-09T07:41:31.972161+00:00", "meta": {"OBJECT_NAME": "STARLINK-35816", "OBJECT_ID": "2025-263Q", "EPOCH": "2025-12-08T22:00:03.000096", "MEAN_MOTION": 15.50546413, "ECCENTRICITY": 0.00014762, "INCLINATION": 43.0003, "RA_OF_ASC_NODE": 147.4593, "ARG_OF_PERICENTER": 276.4306, "MEAN_ANOMALY": 268.2274, "EPHEMERIS_TYPE": 0, "CLASSIFICATION_TYPE": "U", "NORAD_CAT_ID": 66499, "ELEMENT_SET_NO": 999, "REV_AT_EPOCH": 502, "BSTAR": 0.00056463831, "MEAN_MOTION_DOT": 0.00032884, "MEAN_MOTION_DDOT": 0}, "tle": {"line1": "1 66499U 25263Q   25342.91670139  .00032884  00000+0  56464-3 0  9996", "line2": "2 66499  43.0003 147.4593 0001476 276.4306 268.2274 15.50546413  5027"}}, "geometry": {"type": "Point", "coordinates": [70.50791235770407, -41.93500970904325]}}, {"type": "Feature", "properties": {"norad_id": 66500, "name": "STARLINK-35894", "group": "last-30-days", "lat": -33.808765984580994, "lon": 11.153064772457286, "alt_km": 417.5309385796472, "timestamp": "2025-12-09T07:41:31.972171+00:00", "meta": {"OBJECT_NAME": "STARLINK-35894", "OBJECT_ID": "2025-263R", "EPOCH": "2025-12-08T22:00:03.000096", "MEAN_MOTION": 15.50556164, "ECCENTRICITY": 0.00012195, "INCLINATION": 43.0003, "RA_OF_ASC_NODE": 147.5739, "ARG_OF_PERICENTER": 294.455, "MEAN_ANOMALY": 203.4218, "EPHEMERIS_TYPE": 0, "CLASSIFICATION_TYPE": "U", "NORAD_CAT_ID": 66500, "ELEMENT_SET_NO": 999, "REV_AT_EPOCH": 502, "BSTAR": 0.00089468404, "MEAN_MOTION_DOT": 0.00052454, "MEAN_MOTION_DDOT": 0}, "tle": {"line1": "1 66500U 25263R   25342.91670139  .00052454  00000+0  89468-3 0  9994", "line2": "2 66500  43.0003 147.5739 0001219 294.4550 203.4218 15.50556164  5022"}}, "geometry": {"type": "Point", "coordinates": [11.153064772457286, -33.808765984580994]}}, {"type": "Feature", "properties": {"norad_id": 66501, "name": "STARLINK-35897", "group": "last-30-days", "lat": -41.55908884545962, "lon": 73.02635990056562, "alt_km": 417.27170038363784, "timestamp": "2025-12-09T07:41:31.972183+00:00", "meta": {"OBJECT_NAME": "STARLINK-35897", "OBJECT_ID": "2025-263S", "EPOCH": "2025-12-08T22:00:03.000096", "MEAN_MOTION": 15.50604824, "ECCENTRICITY": 0.00017038, "INCLINATION": 43, "RA_OF_ASC_NODE": 147.4537, "ARG_OF_PERICENTER": 293.128, "MEAN_ANOMALY": 253.4273, "EPHEMERIS_TYPE": 0, "CLASSIFICATION_TYPE": "U", "NORAD_CAT_ID": 66501, "ELEMENT_SET_NO": 999, "REV_AT_EPOCH": 502, "BSTAR": -0.0010091348, "MEAN_MOTION_DOT": -0.00059153, "MEAN_MOTION_DDOT": 0}, "tle": {"line1": "1 66501U 25263S   25342.91670139 -.00059153  00000+0 -10091-2 0  9995", "line2": "2 66501  43.0000 147.4537 0001703 293.1280 253.4273 15.50604824  5022"}}, "geometry": {"type": "Point", "coordinates": [73.02635990056562, -41.55908884545962]}}, {"type": "Feature", "properties": {"norad_id": 66502, "name": "STARLINK-35922", "group": "last-30-days", "lat": -40.11663689048048, "lon": 80.36367476261097, "alt_km": 417.14439210755063, "timestamp": "2025-12-09T07:41:31.972196+00:00", "meta": {"OBJECT_NAME": "STARLINK-35922", "OBJECT_ID": "2025-263T", "EPOCH": "2025-12-08T22:00:03.000096", "MEAN_MOTION": 15.5053223, "ECCENTRICITY": 0.00016792, "INCLINATION": 43.0004, "RA_OF_ASC_NODE": 147.4398, "ARG_OF_PERICENTER": 276.633, "MEAN_ANOMALY": 275.6981, "EPHEMERIS_TYPE": 0, "CLASSIFICATION_TYPE": "U", "NORAD_CAT_ID": 66502, "ELEMENT_SET_NO": 999, "REV_AT_EPOCH": 502, "BSTAR": 0.0011664966, "MEAN_MOTION_DOT": 0.00068579, "MEAN_MOTION_DDOT": 0}, "tle": {"line1": "1 66502U 25263T   25342.91670139  .00068579  00000+0  11665-2 0  9994", "line2": "2 66502  43.0004 147.4398 0001679 276.6330 275.6981 15.50532230  5029"}}, "geometry": {"type": "Point", "coordinates": [80.36367476261097, -40.11663689048048]}}]}